SL-3 R/B                
1 13403U 82079B   26059.21662779  .00007786  00000+0  31180-3 0  9992
2 13403  81.1460 204.2602 0024698 196.5286 163.5145 15.24627726376255
SL-14 R/B               
1 13553U 82092B   26059.21454836  .00000527  00000+0  56480-4 0  9993
2 13553  82.5706 150.2601 0019631 336.7523  51.9266 14.86655067327527
SL-3 R/B                
1 13819U 83010B   26059.24756039  .00016902  00000+0  34390-3 0  9991
2 13819  81.1048  13.8180 0018615  80.7824 279.5525 15.45955640356482
SL-3 R/B                
1 14208U 83075B   26059.25488954  .00011418  00000+0  30430-3 0  9992
2 14208  97.6135  63.4773 0019619 263.0831  96.8181 15.38145574328703
COSMOS 1536             
1 14699U 84013A   26059.19784475  .00006026  00000+0  24937-3 0  9993
2 14699  82.5448 117.2853 0013064 320.6072  39.4213 15.23679180271175
SL-14 R/B               
1 14820U 84027B   26058.99652660  .00000496  00000+0  53856-4 0  9999
2 14820  82.5380 254.1064 0018200  10.5384 349.6210 14.85964504246190
SL-8 R/B                
1 15483U 85006B   26059.07392089  .00000165  00000+0  63469-4 0  9993
2 15483  74.0436 278.8438 0018845 198.6943 315.3385 14.37776673152640
SL-12 R/B(2)            
1 15772U 85042D   26059.26946006  .00000076  00000+0  55714-4 0  9994
2 15772  71.1068 107.6326 0033720 143.5264 285.8967 14.21979516113052
SL-14 R/B               
1 15945U 85069B   26059.18619459  .00000591  00000+0  64103-4 0  9999
2 15945  82.5264  33.8691 0017667 220.2680 139.7229 14.86419817171427
SL-16 R/B               
1 16182U 85097B   26059.23478440  .00000155  00000+0  10166-3 0  9998
2 16182  71.0038 160.4579 0009819 270.6143 113.4246 14.16598849 85897
SL-14 R/B               
1 16496U 86006B   26059.09843738  .00000627  00000+0  64156-4 0  9990
2 16496  82.5237 268.7665 0075320 305.2230  54.1951 14.86800243147785
COSMOS 1743             
1 16719U 86034A   26059.13740250  .00034387  00000+0  46124-3 0  9993
2 16719  82.5306  83.8518 0002756 351.0864   9.0342 15.57783251178761
