CCSDS_OMM_VERS = 2.0
CREATION_DATE  = 
ORIGINATOR     = 

OBJECT_NAME    = SL-3 R/B
OBJECT_ID      = 1982-079B
CENTER_NAME    = EARTH
REF_FRAME      = TEME
TIME_SYSTEM    = UTC
MEAN_ELEMENT_THEORY = SGP/SGP4

EPOCH          = 2026-02-28T05:11:56.641056
MEAN_MOTION    = 15.24627726
ECCENTRICITY   = .00246982
INCLINATION    = 81.1460
RA_OF_ASC_NODE = 204.2602
ARG_OF_PERICENTER = 196.5286
MEAN_ANOMALY   = 163.5145

EPHEMERIS_TYPE = 0
CLASSIFICATION_TYPE = U
NORAD_CAT_ID   = 13403
ELEMENT_SET_NO = 999
REV_AT_EPOCH   = 37625
BSTAR          = .31180029E-3
MEAN_MOTION_DOT = .7786E-4
MEAN_MOTION_DDOT = 0

CCSDS_OMM_VERS = 2.0
CREATION_DATE  = 
ORIGINATOR     = 

OBJECT_NAME    = SL-14 R/B
OBJECT_ID      = 1982-092B
CENTER_NAME    = EARTH
REF_FRAME      = TEME
TIME_SYSTEM    = UTC
MEAN_ELEMENT_THEORY = SGP/SGP4

EPOCH          = 2026-02-28T05:08:56.978304
MEAN_MOTION    = 14.86655067
ECCENTRICITY   = .00196317
INCLINATION    = 82.5706
RA_OF_ASC_NODE = 150.2601
ARG_OF_PERICENTER = 336.7523
MEAN_ANOMALY   = 51.9266

EPHEMERIS_TYPE = 0
CLASSIFICATION_TYPE = U
NORAD_CAT_ID   = 13553
ELEMENT_SET_NO = 999
REV_AT_EPOCH   = 32752
BSTAR          = .56479995E-4
MEAN_MOTION_DOT = .527E-5
MEAN_MOTION_DDOT = 0

CCSDS_OMM_VERS = 2.0
CREATION_DATE  = 
ORIGINATOR     = 

OBJECT_NAME    = SL-3 R/B
OBJECT_ID      = 1983-010B
CENTER_NAME    = EARTH
REF_FRAME      = TEME
TIME_SYSTEM    = UTC
MEAN_ELEMENT_THEORY = SGP/SGP4

EPOCH          = 2026-02-28T05:56:29.217696
MEAN_MOTION    = 15.45955640
ECCENTRICITY   = .00186154
INCLINATION    = 81.1048
RA_OF_ASC_NODE = 13.8180
ARG_OF_PERICENTER = 80.7824
MEAN_ANOMALY   = 279.5525

EPHEMERIS_TYPE = 0
CLASSIFICATION_TYPE = U
NORAD_CAT_ID   = 13819
ELEMENT_SET_NO = 999
REV_AT_EPOCH   = 35648
BSTAR          = .34390323E-3
MEAN_MOTION_DOT = .16902E-3
MEAN_MOTION_DDOT = 0

CCSDS_OMM_VERS = 2.0
CREATION_DATE  = 
ORIGINATOR     = 

OBJECT_NAME    = SL-3 R/B
OBJECT_ID      = 1983-075B
CENTER_NAME    = EARTH
REF_FRAME      = TEME
TIME_SYSTEM    = UTC
MEAN_ELEMENT_THEORY = SGP/SGP4

EPOCH          = 2026-02-28T06:07:02.456256
MEAN_MOTION    = 15.38145574
ECCENTRICITY   = .00196195
INCLINATION    = 97.6135
RA_OF_ASC_NODE = 63.4773
ARG_OF_PERICENTER = 263.0831
MEAN_ANOMALY   = 96.8181

EPHEMERIS_TYPE = 0
CLASSIFICATION_TYPE = U
NORAD_CAT_ID   = 14208
ELEMENT_SET_NO = 999
REV_AT_EPOCH   = 32870
BSTAR          = .30429733E-3
MEAN_MOTION_DOT = .11418E-3
MEAN_MOTION_DDOT = 0

CCSDS_OMM_VERS = 2.0
CREATION_DATE  = 
ORIGINATOR     = 

OBJECT_NAME    = COSMOS 1536
OBJECT_ID      = 1984-013A
CENTER_NAME    = EARTH
REF_FRAME      = TEME
TIME_SYSTEM    = UTC
MEAN_ELEMENT_THEORY = SGP/SGP4

EPOCH          = 2026-02-28T04:44:53.786400
MEAN_MOTION    = 15.23679180
ECCENTRICITY   = .00130643
INCLINATION    = 82.5448
RA_OF_ASC_NODE = 117.2853
ARG_OF_PERICENTER = 320.6072
MEAN_ANOMALY   = 39.4213

EPHEMERIS_TYPE = 0
CLASSIFICATION_TYPE = U
NORAD_CAT_ID   = 14699
ELEMENT_SET_NO = 999
REV_AT_EPOCH   = 27117
BSTAR          = .24936798E-3
MEAN_MOTION_DOT = .6026E-4
MEAN_MOTION_DDOT = 0

CCSDS_OMM_VERS = 2.0
CREATION_DATE  = 
ORIGINATOR     = 

OBJECT_NAME    = SL-14 R/B
OBJECT_ID      = 1984-027B
CENTER_NAME    = EARTH
REF_FRAME      = TEME
TIME_SYSTEM    = UTC
MEAN_ELEMENT_THEORY = SGP/SGP4

EPOCH          = 2026-02-27T23:54:59.898240
MEAN_MOTION    = 14.85964504
ECCENTRICITY   = .00182008
INCLINATION    = 82.5380
RA_OF_ASC_NODE = 254.1064
ARG_OF_PERICENTER = 10.5384
MEAN_ANOMALY   = 349.6210

EPHEMERIS_TYPE = 0
CLASSIFICATION_TYPE = U
NORAD_CAT_ID   = 14820
ELEMENT_SET_NO = 999
REV_AT_EPOCH   = 24619
BSTAR          = .53856467E-4
MEAN_MOTION_DOT = .496E-5
MEAN_MOTION_DDOT = 0

CCSDS_OMM_VERS = 2.0
CREATION_DATE  = 
ORIGINATOR     = 

OBJECT_NAME    = SL-8 R/B
OBJECT_ID      = 1985-006B
CENTER_NAME    = EARTH
REF_FRAME      = TEME
TIME_SYSTEM    = UTC
MEAN_ELEMENT_THEORY = SGP/SGP4

EPOCH          = 2026-02-28T01:46:26.764896
MEAN_MOTION    = 14.37776673
ECCENTRICITY   = .00188457
INCLINATION    = 74.0436
RA_OF_ASC_NODE = 278.8438
ARG_OF_PERICENTER = 198.6943
MEAN_ANOMALY   = 315.3385

EPHEMERIS_TYPE = 0
CLASSIFICATION_TYPE = U
NORAD_CAT_ID   = 15483
ELEMENT_SET_NO = 999
REV_AT_EPOCH   = 15264
BSTAR          = .63469351E-4
MEAN_MOTION_DOT = .165E-5
MEAN_MOTION_DDOT = 0

CCSDS_OMM_VERS = 2.0
CREATION_DATE  = 
ORIGINATOR     = 

OBJECT_NAME    = SL-12 R/B(2)
OBJECT_ID      = 1985-042D
CENTER_NAME    = EARTH
REF_FRAME      = TEME
TIME_SYSTEM    = UTC
MEAN_ELEMENT_THEORY = SGP/SGP4

EPOCH          = 2026-02-28T06:28:01.349184
MEAN_MOTION    = 14.21979516
ECCENTRICITY   = .00337204
INCLINATION    = 71.1068
RA_OF_ASC_NODE = 107.6326
ARG_OF_PERICENTER = 143.5264
MEAN_ANOMALY   = 285.8967

EPHEMERIS_TYPE = 0
CLASSIFICATION_TYPE = U
NORAD_CAT_ID   = 15772
ELEMENT_SET_NO = 999
REV_AT_EPOCH   = 11305
BSTAR          = .55714296E-4
MEAN_MOTION_DOT = .76E-6
MEAN_MOTION_DDOT = 0

CCSDS_OMM_VERS = 2.0
CREATION_DATE  = 
ORIGINATOR     = 

OBJECT_NAME    = SL-14 R/B
OBJECT_ID      = 1985-069B
CENTER_NAME    = EARTH
REF_FRAME      = TEME
TIME_SYSTEM    = UTC
MEAN_ELEMENT_THEORY = SGP/SGP4

EPOCH          = 2026-02-28T04:28:07.212576
MEAN_MOTION    = 14.86419817
ECCENTRICITY   = .0017667
INCLINATION    = 82.5264
RA_OF_ASC_NODE = 33.8691
ARG_OF_PERICENTER = 220.2680
MEAN_ANOMALY   = 139.7229

EPHEMERIS_TYPE = 0
CLASSIFICATION_TYPE = U
NORAD_CAT_ID   = 15945
ELEMENT_SET_NO = 999
REV_AT_EPOCH   = 17142
BSTAR          = .64102952E-4
MEAN_MOTION_DOT = .591E-5
MEAN_MOTION_DDOT = 0

CCSDS_OMM_VERS = 2.0
CREATION_DATE  = 
ORIGINATOR     = 

OBJECT_NAME    = SL-16 R/B
OBJECT_ID      = 1985-097B
CENTER_NAME    = EARTH
REF_FRAME      = TEME
TIME_SYSTEM    = UTC
MEAN_ELEMENT_THEORY = SGP/SGP4

EPOCH          = 2026-02-28T05:38:05.372160
MEAN_MOTION    = 14.16598849
ECCENTRICITY   = .00098193
INCLINATION    = 71.0038
RA_OF_ASC_NODE = 160.4579
ARG_OF_PERICENTER = 270.6143
MEAN_ANOMALY   = 113.4246

EPHEMERIS_TYPE = 0
CLASSIFICATION_TYPE = U
NORAD_CAT_ID   = 16182
ELEMENT_SET_NO = 999
REV_AT_EPOCH   = 8589
BSTAR          = .10165971E-3
MEAN_MOTION_DOT = .155E-5
MEAN_MOTION_DDOT = 0

CCSDS_OMM_VERS = 2.0
CREATION_DATE  = 
ORIGINATOR     = 

OBJECT_NAME    = SL-14 R/B
OBJECT_ID      = 1986-006B
CENTER_NAME    = EARTH
REF_FRAME      = TEME
TIME_SYSTEM    = UTC
MEAN_ELEMENT_THEORY = SGP/SGP4

EPOCH          = 2026-02-28T02:21:44.989632
MEAN_MOTION    = 14.86800243
ECCENTRICITY   = .00753204
INCLINATION    = 82.5237
RA_OF_ASC_NODE = 268.7665
ARG_OF_PERICENTER = 305.2230
MEAN_ANOMALY   = 54.1951

EPHEMERIS_TYPE = 0
CLASSIFICATION_TYPE = U
NORAD_CAT_ID   = 16496
ELEMENT_SET_NO = 999
REV_AT_EPOCH   = 14778
BSTAR          = .64155561E-4
MEAN_MOTION_DOT = .627E-5
MEAN_MOTION_DDOT = 0

CCSDS_OMM_VERS = 2.0
CREATION_DATE  = 
ORIGINATOR     = 

OBJECT_NAME    = COSMOS 1743
OBJECT_ID      = 1986-034A
CENTER_NAME    = EARTH
REF_FRAME      = TEME
TIME_SYSTEM    = UTC
MEAN_ELEMENT_THEORY = SGP/SGP4

EPOCH          = 2026-02-28T03:17:51.576000
MEAN_MOTION    = 15.57783251
ECCENTRICITY   = .00027567
INCLINATION    = 82.5306
RA_OF_ASC_NODE = 83.8518
ARG_OF_PERICENTER = 351.0864
MEAN_ANOMALY   = 9.0342

EPHEMERIS_TYPE = 0
CLASSIFICATION_TYPE = U
NORAD_CAT_ID   = 16719
ELEMENT_SET_NO = 999
REV_AT_EPOCH   = 17876
BSTAR          = .4612417E-3
MEAN_MOTION_DOT = .34387E-3
MEAN_MOTION_DDOT = 0

